#aV2016  6 28  0  0  0.00000000     288 DD+AD WGS84 FIT  NGA
## 1903 172800.00000000   300.00000000 57567 0.0000000000000
+   31     1  2  3  5  6  7  8  9 10 11 12 13 14 15 16 17 18
+         19 20 21 22 23 24 25 26 27 28 29 30 31 32  0  0  0
+          0  0  0  0  0  0  0  0  0  0  0  0  0  0  0  0  0
+          0  0  0  0  0  0  0  0  0  0  0  0  0  0  0  0  0
+          0  0  0  0  0  0  0  0  0  0  0  0  0  0  0  0  0
++         2  2  2  2  2  2  2  2  2  2  2  2  2  2  2  2  2
++         2  2  2  2  2  2  2  2  2  2  2  2  2  2  0  0  0
++         0  0  0  0  0  0  0  0  0  0  0  0  0  0  0  0  0
++         0  0  0  0  0  0  0  0  0  0  0  0  0  0  0  0  0
++         0  0  0  0  0  0  0  0  0  0  0  0  0  0  0  0  0
%c cc cc ccc ccc cccc cccc cccc cccc ccccc ccccc ccccc ccccc
%c cc cc ccc ccc cccc cccc cccc cccc ccccc ccccc ccccc ccccc
%f  0.0000000  0.000000000  0.00000000000  0.000000000000000
%f  0.0000000  0.000000000  0.00000000000  0.000000000000000
%i    0    0    0    0      0      0      0      0         0
%i    0    0    0    0      0      0      0      0         0
/*      NGA, ST. LOUIS,MO.                                  
/*   EPHEMERIS COMPUTED FROM 2 DAYS OF DATA                 
/*   EPOCHA v2.4 SMOOTHER                                   
/*   G1762  SATAF SATAPC                                    
*  2016  6 28 23 10  0.00000000
P  1  22357.462188  14459.938301  -1961.223284     25.172476                    
V  1  -3289.333936    958.636987 -31559.014548      0.012600                    
P  2  -6430.609418 -18476.052165  18577.764443    581.725469                    
V  2  20739.071860   9106.973411  16252.040250     -0.037354                    
P  3  13357.354682  13011.854273  18920.134325    -71.308959                    
V  3  -1268.043211  24024.847286 -15632.307643     -0.032033                    
P  5  -3964.168696 -25716.491681  -4832.982937   -109.321365                    
V  5   3252.632627  -6165.376213  30745.479458      0.028357                    
P  6   9228.737973 -12117.369006  21771.294775    211.315459                    
V  6  23925.116106  13766.481142  -2476.616543      0.053367                    
P  7  23128.850059   3553.996271 -12806.158291    445.469168                    
V  7  13027.719270  10019.721538  25613.759238     -0.025049                    
P  8   9427.605255  11946.394216 -21723.016266    -40.777155                    
V  8 -23686.692784  14330.676496  -2353.634997     -0.014345                    
P  9  23597.017621  -4848.083379  11192.937096    157.516060                    
V  9 -10912.345409   9496.978523  27071.150142      0.072692                    
P 10 -11086.659371  17951.375568 -16069.535969    -55.170904                    
V 10  -2193.791521 -20455.240097 -21377.463727     -0.077579                    
P 11  21112.322321  12110.023165 -11226.380145   -653.941304                    
V 11 -14006.309540   1896.514960 -25554.647567     -0.017324                    
P 12 -10797.257740 -16662.431219  17612.266798    383.982177                    
V 12   2099.765802 -22412.781778 -19560.372914      0.009981                    
P 13      9.333558 -15966.861629 -21362.813753    -27.782503                    
V 13  24718.615717 -10340.281865   7700.604926     -0.024854                    
P 14 -16955.456208  17051.715831  11366.919578    -21.825374                    
V 14 -13702.490423   4035.238726 -27280.721792     -0.020189                    
P 15 -12753.837544 -10326.702202 -21052.224411   -317.228520                    
V 15  21740.320579 -15189.783903  -5403.941434     -0.015765                    
P 16   1330.634822  25932.613318  -4599.005194     -7.934953                    
V 16  -2501.817127   5599.183210  31950.129028      0.023616                    
P 17  21059.350883 -15198.573786   5399.716906   -203.993923                    
V 17   6808.734229   -930.196182 -31248.200706      0.000349                    
P 18 -15245.695995   5403.561807 -20490.368736    531.265035                    
V 18  -2015.297176 -27399.543960  -5828.092781      0.038516                    
P 19  15589.346117 -17088.552391  13121.530808   -525.268108                    
V 19  16067.789355  -5553.125026 -25480.674972      0.001858                    
P 20 -13831.562437 -15814.195913 -16377.458579    421.198636                    
V 20    572.181142 -20786.028033  19807.575429      0.022385                    
P 21 -22258.207362   -253.606072 -13906.093713   -527.068262                    
V 21 -15405.661689 -11314.038806  23371.296105     -0.009916                    
P 22  10853.704572  20391.560240  13247.287831    309.212692                    
V 22  -2496.744365  16691.330604 -24208.035834     -0.089207                    
P 23  19731.879385   3336.361165  17875.392106   -180.043041                    
V 23 -18318.561818  12608.475235  17627.259278     -0.015592                    
P 24 -20867.486643 -15676.564654  -5514.458268    -19.315834                    
V 24   7456.181546    701.495941 -30336.543080     -0.005814                    
P 25 -14671.523570  -3383.927870  21769.156705   -198.812726                    
V 25     78.097504 -27875.805755  -4070.564573     -0.070093                    
P 26  -4024.719042  25464.636527   6281.920391   -409.070951                    
V 26  -2874.430169  -7954.638907  30419.320603     -0.106510                    
P 27  -2554.564325  17333.727880 -19946.060356    108.745135                    
V 27 -22307.261459  11914.137270  13402.850208      0.042892                    
P 28  12129.317942 -16039.465519 -16701.626538    533.471990                    
V 28   -120.829272  22431.046789 -20897.795973      0.026842                    
P 29 -22615.584177   1127.273945  13848.614720    656.192834                    
V 29  14802.230456  -9626.321210  25001.575335     -0.005353                    
P 30  17877.826844  -4535.025583 -19154.911573    136.279482                    
V 30  19514.999621  14553.549071  14665.740791      0.025595                    
P 31  -6301.008856  13724.813493  21932.566652    261.553224                    
V 31 -23702.606646 -14133.990020   2397.789137     -0.019553                    
P 32 -19840.625145  16622.022295   5927.527688    -35.201981                    
V 32  -7876.667570   1458.220265 -30535.724550     -0.090560                    
EOF
